[{"OBJECT_NAME":"OBJECT E","OBJECT_ID":"2023-091E","EPOCH":"2026-03-09T22:26:33.073728","MEAN_MOTION":15.22514482,"ECCENTRICITY":0.00108779,"INCLINATION":97.5235,"RA_OF_ASC_NODE":130.4024,"ARG_OF_PERICENTER":84.6411,"MEAN_ANOMALY":275.6066,"EPHEMERIS_TYPE":0,"CLASSIFICATION_TYPE":"U","NORAD_CAT_ID":57170,"ELEMENT_SET_NO":999,"REV_AT_EPOCH":14905,"BSTAR":0.00044574871,"MEAN_MOTION_DOT":0.00010283,"MEAN_MOTION_DDOT":0},{"OBJECT_NAME":"FENGYUN 1C DEB","OBJECT_ID":"1999-025CHJ","EPOCH":"2026-03-08T11:31:09.458976","MEAN_MOTION":14.95691878,"ECCENTRICITY":0.01420749,"INCLINATION":98.9647,"RA_OF_ASC_NODE":255.4325,"ARG_OF_PERICENTER":95.8243,"MEAN_ANOMALY":265.919,"EPHEMERIS_TYPE":0,"CLASSIFICATION_TYPE":"U","NORAD_CAT_ID":31820,"ELEMENT_SET_NO":999,"REV_AT_EPOCH":99536,"BSTAR":0.0019551569,"MEAN_MOTION_DOT":0.00026677,"MEAN_MOTION_DDOT":0}]
